NORAD_CAT_ID,OBJECT_NAME,OBJECT_TYPE,EPOCH,MEAN_MOTION,ECCENTRICITY,INCLINATION,RA_OF_ASC_NODE,ARG_OF_PERICENTER,MEAN_ANOMALY,BSTAR,MEAN_MOTION_DOT,MEAN_MOTION_DDOT,TLE_LINE0,TLE_LINE1,TLE_LINE2,SEMIMAJOR_AXIS,PERIOD,APOGEE,PERIGEE,DECAYED
51742.0,STARLINK-3521,PAYLOAD,2024-04-28 08:37:20,15.08829634,0.0001566,53.2161,133.4341,96.9858,263.1312,-0.00012414,-2.263e-05,0.0,0 STARLINK-3521,1 51742U 22016AE  24119.35926253 -.00002263  00000-0 -12414-3 0  9992,2 51742  53.2161 133.4341 0001566  96.9858 263.1312 15.08829634121986,6917.912,95.438,540.86,538.694,0.0
51742.0,STARLINK-3521,PAYLOAD,2024-04-28 18:09:39,15.08833406,0.0001546,53.2161,131.6501,97.7245,262.3923,-7.58e-05,-1.494e-05,0.0,0 STARLINK-3521,1 51742U 22016AE  24119.75670222 -.00001494  00000-0 -75800-4 0  9992,2 51742  53.2161 131.6501 0001546  97.7245 262.3923 15.08833406120914,6917.901,95.438,540.835,538.696,0.0
51742.0,STARLINK-3521,PAYLOAD,2024-04-29 05:17:21,15.08836961,0.0001509,53.2156,129.5686,98.2661,261.8502,2.5369e-05,1.16e-06,0.0,0 STARLINK-3521,1 51742U 22016AE  24120.22038255  .00000116  00000-0  25369-4 0  9993,2 51742  53.2156 129.5686 0001509  98.2661 261.8502 15.08836961122115,6917.89,95.438,540.799,538.711,0.0
51742.0,STARLINK-3521,PAYLOAD,2024-04-29 10:03:30,15.08837612,0.0001441,53.215,128.6759,102.1303,257.985,0.00012573,1.713e-05,0.0,0 STARLINK-3521,1 51742U 22016AE  24120.41910262  .00001713  00000-0  12573-3 0  9997,2 51742  53.2150 128.6759 0001441 102.1303 257.9850 15.08837612121017,6917.888,95.438,540.75,538.756,0.0
51742.0,STARLINK-3521,PAYLOAD,2024-04-29 18:00:26,15.08840861,0.0001444,53.2152,127.1894,101.1543,258.9611,0.00023793,3.501e-05,0.0,0 STARLINK-3521,1 51742U 22016AE  24120.75030338  .00003501  00000-0  23793-3 0  9994,2 51742  53.2152 127.1894 0001444 101.1543 258.9611 15.08840861121062,6917.878,95.438,540.742,538.744,0.0
51742.0,STARLINK-3521,PAYLOAD,2024-04-30 06:43:31,15.08848617,0.000144,53.2153,124.8102,103.5753,256.5399,0.00046732,7.159e-05,0.0,0 STARLINK-3521,1 51742U 22016AE  24121.28022280  .00007159  00000-0  46732-3 0  9991,2 51742  53.2153 124.8102 0001440 103.5753 256.5399 15.08848617122272,6917.854,95.437,540.715,538.723,0.0
51742.0,STARLINK-3521,PAYLOAD,2024-05-01 04:58:54,15.08847232,0.0001419,53.2152,120.6465,104.166,255.949,0.00019119,2.757e-05,0.0,0 STARLINK-3521,1 51742U 22016AE  24122.20758027  .00002757  00000-0  19119-3 0  9997,2 51742  53.2152 120.6465 0001419 104.1660 255.9490 15.08847232122410,6917.858,95.437,540.705,538.742,0.0
51742.0,STARLINK-3521,PAYLOAD,2024-05-01 06:34:18,15.08845392,0.0001358,53.215,120.3506,98.7608,261.3538,0.00017287,2.465e-05,0.0,0 STARLINK-3521,1 51742U 22016AE  24122.27382141  .00002465  00000-0  17287-3 0  9994,2 51742  53.2150 120.3506 0001358  98.7608 261.3538 15.08845392121297,6917.864,95.437,540.668,538.789,0.0
51742.0,STARLINK-3521,PAYLOAD,2024-05-02 04:49:41,15.08844141,0.0001294,53.2149,116.1872,97.8042,262.3097,5.4666e-05,5.82e-06,0.0,0 STARLINK-3521,1 51742U 22016AE  24123.20117907  .00000582  00000-0  54666-4 0  9995,2 51742  53.2149 116.1872 0001294  97.8042 262.3097 15.08844141122568,6917.868,95.437,540.628,538.838,0.0
51742.0,STARLINK-3521,PAYLOAD,2024-05-02 06:25:05,15.08844543,0.0001273,53.2154,115.8894,99.0415,261.0721,5.416e-05,5.74e-06,0.0,0 STARLINK-3521,1 51742U 22016AE  24123.26741976  .00000574  00000-0  54160-4 0  9990,2 51742  53.2154 115.8894 0001273  99.0415 261.0721 15.08844543121441,6917.867,95.437,540.612,538.851,0.0
51742.0,STARLINK-3521,PAYLOAD,2024-05-03 06:15:52,15.08840388,0.0001426,53.2173,111.4301,100.1231,259.9922,9.1346e-05,1.166e-05,0.0,0 STARLINK-3521,1 51742U 22016AE  24124.26101971  .00001166  00000-0  91346-4 0  9991,2 51742  53.2173 111.4301 0001426 100.1231 259.9922 15.08840388122721,6917.879,95.438,540.731,538.758,0.0
51742.0,STARLINK-3521,PAYLOAD,2024-05-03 15:48:10,15.08845314,0.0001445,53.2176,109.646,99.8639,260.2517,9.7172e-05,1.259e-05,0.0,0 STARLINK-3521,1 51742U 22016AE  24124.65845558  .00001259  00000-0  97172-4 0  9996,2 51742  53.2176 109.6460 0001445  99.8639 260.2517 15.08845314121656,6917.864,95.437,540.729,538.73,0.0
51742.0,STARLINK-3521,PAYLOAD,2024-05-04 06:06:40,15.0883043,0.0001416,53.2175,106.97,98.7094,261.4059,-7.7724e-06,-4.12e-06,0.0,0 STARLINK-3521,1 51742U 22016AE  24125.25463003 -.00000412  00000-0 -77724-5 0  9998,2 51742  53.2175 106.9700 0001416  98.7094 261.4059 15.08830430122875,6917.91,95.438,540.754,538.795,0.0
51742.0,STARLINK-3521,PAYLOAD,2024-05-05 04:22:03,15.08841299,0.0001229,53.2164,102.805,90.4055,269.7078,8.6427e-05,1.088e-05,0.0,0 STARLINK-3521,1 51742U 22016AE  24126.18198465  .00001088  00000-0  86427-4 0  9995,2 51742  53.2164 102.8050 0001229  90.4055 269.7078 15.08841299123018,6917.876,95.437,540.592,538.891,0.0
51742.0,STARLINK-3521,PAYLOAD,2024-05-05 07:32:49,15.08844544,0.0001274,53.2169,102.2107,92.4646,267.6492,0.00012232,1.66e-05,0.0,0 STARLINK-3521,1 51742U 22016AE  24126.31446261  .00001660  00000-0  12232-3 0  9998,2 51742  53.2169 102.2107 0001274  92.4646 267.6492 15.08844544121907,6917.866,95.437,540.613,538.85,0.0
51742.0,STARLINK-3521,PAYLOAD,2024-05-06 07:23:36,15.08848899,0.0001371,53.2163,97.7497,86.6992,273.4157,0.00030205,4.524e-05,0.0,0 STARLINK-3521,1 51742U 22016AE  24127.30806222  .00004524  00000-0  30205-3 0  9997,2 51742  53.2163  97.7497 0001371  86.6992 273.4157 15.08848899123180,6917.853,95.437,540.667,538.77,0.0
51742.0,STARLINK-3521,PAYLOAD,2024-05-06 21:42:04,15.0885233,0.0001798,53.2166,95.0743,88.2116,271.9082,0.00023941,3.525e-05,0.0,0 STARLINK-3521,1 51742U 22016AE  24127.90422036  .00003525  00000-0  23941-3 0  9999,2 51742  53.2166  95.0743 0001798  88.2116 271.9082 15.08852330122147,6917.843,95.437,540.952,538.464,0.0
51742.0,STARLINK-3521,PAYLOAD,2024-05-07 04:03:37,15.0884537,0.0001514,53.2167,93.8842,89.3654,270.7512,9.4436e-05,1.215e-05,0.0,0 STARLINK-3521,1 51742U 22016AE  24128.16918202  .00001215  00000-0  94436-4 0  9995,2 51742  53.2167  93.8842 0001514  89.3654 270.7512 15.08845370123310,6917.864,95.437,540.776,538.682,0.0
51742.0,STARLINK-3521,PAYLOAD,2024-05-07 21:32:51,15.0884255,0.0001756,53.217,90.6135,86.5314,273.5879,1.6053e-06,-2.63e-06,0.0,0 STARLINK-3521,1 51742U 22016AE  24128.89782133 -.00000263  00000-0  16053-5 0  9990,2 51742  53.2170  90.6135 0001756  86.5314 273.5879 15.08842550122294,6917.873,95.437,540.952,538.523,0.0
51742.0,STARLINK-3521,PAYLOAD,2024-05-08 03:54:24,15.08840023,0.000146,53.2171,89.4233,93.0452,267.0708,-1.5848e-05,-5.4e-06,0.0,0 STARLINK-3521,1 51742U 22016AE  24129.16278190 -.00000540  00000-0 -15848-4 0  9993,2 51742  53.2171  89.4233 0001460  93.0452 267.0708 15.08840023123460,6917.88,95.438,540.755,538.735,0.0
51742.0,STARLINK-3521,PAYLOAD,2024-05-08 07:05:10,15.08842547,0.0001502,53.2171,88.8282,94.9458,265.1706,3.938e-05,3.39e-06,0.0,0 STARLINK-3521,1 51742U 22016AE  24129.29526132  .00000339  00000-0  39380-4 0  9990,2 51742  53.2171  88.8282 0001502  94.9458 265.1706 15.08842547122357,6917.873,95.437,540.777,538.699,0.0
51742.0,STARLINK-3521,PAYLOAD,2024-05-09 06:55:58,15.08838511,0.0001418,53.217,84.367,98.9642,261.151,7.7216e-05,9.41e-06,0.0,0 STARLINK-3521,1 51742U 22016AE  24130.28886583  .00000941  00000-0  77216-4 0  9999,2 51742  53.2170  84.3670 0001418  98.9642 261.1510 15.08838511123630,6917.885,95.438,540.731,538.769,0.0
51742.0,STARLINK-3521,PAYLOAD,2024-05-10 13:08:17,15.08858538,0.0001199,53.2176,78.719,92.6105,267.5025,0.00049549,7.611e-05,0.0,0 STARLINK-3521,1 51742U 22016AE  24131.54742014  .00007611  00000-0  49549-3 0  9997,2 51742  53.2176  78.7190 0001199  92.6105 267.5025 15.08858538123824,6917.824,95.436,540.518,538.859,0.0
51742.0,STARLINK-3521,PAYLOAD,2024-05-10 21:05:13,15.08853699,0.0002765,53.2173,77.232,86.8999,273.231,0.00042672,6.512e-05,0.0,0 STARLINK-3521,1 51742U 22016AE  24131.87862705  .00006512  00000-0  42672-3 0  9992,2 51742  53.2173  77.2320 0002765  86.8999 273.2310 15.08853699123875,6917.839,95.437,541.616,537.791,0.0
51742.0,STARLINK-3521,PAYLOAD,2024-05-11 12:59:02,15.08939414,0.000144,53.2178,74.2594,78.153,281.9624,0.0033469,0.00053529,0.0,0 STARLINK-3521,1 51742U 22016AE  24132.54099758  .00053529  00000-0  33469-2 0  9990,2 51742  53.2178  74.2594 0001440  78.1530 281.9624 15.08939414123979,6917.577,95.431,540.438,538.445,0.0
51742.0,STARLINK-3521,PAYLOAD,2024-05-12 04:52:55,15.08759577,0.0001209,53.2178,71.2863,55.3993,304.7113,-0.0026245,-0.00041723,0.0,0 STARLINK-3521,1 51742U 22016AE  24133.20342537 -.00041723  00000-0 -26245-2 0  9999,2 51742  53.2178  71.2863 0001209  55.3993 304.7113 15.08759577124077,6918.126,95.443,540.828,539.155,0.0
51742.0,STARLINK-3521,PAYLOAD,2024-05-12 12:49:53,15.08745727,0.0001194,53.2169,69.7994,56.2797,303.8309,0.0014496,0.00022798,0.0,0 STARLINK-3521,1 51742U 22016AE  24133.53465126  .00022798  00000-0  14496-2 0  9999,2 51742  53.2169  69.7994 0001194  56.2797 303.8309 15.08745727122997,6918.169,95.444,540.86,539.208,0.0
51742.0,STARLINK-3521,PAYLOAD,2024-05-13 04:43:45,15.08850466,0.0001541,53.2166,66.8256,57.5149,302.5992,0.0021132,0.00033514,0.0,0 STARLINK-3521,1 51742U 22016AE  24134.19705771  .00033514  00000-0  21132-2 0  9998,2 51742  53.2166  66.8256 0001541  57.5149 302.5992 15.08850466124223,6917.848,95.437,540.779,538.647,0.0
51742.0,STARLINK-3521,PAYLOAD,2024-05-13 12:40:41,15.08869328,0.000154,53.2168,65.3402,59.93,300.1845,0.0022561,0.0003583,0.0,0 STARLINK-3521,1 51742U 22016AE  24134.52825309  .00035830  00000-0  22561-2 0  9995,2 51742  53.2168  65.3402 0001540  59.9300 300.1845 15.08869328123144,6917.791,95.436,540.721,538.59,0.0
51742.0,STARLINK-3521,PAYLOAD,2024-05-14 04:34:30,15.08895162,0.0001523,53.217,62.3671,59.6879,300.4264,0.0014942,0.00023608,0.0,0 STARLINK-3521,1 51742U 22016AE  24135.19063502  .00023608  00000-0  14942-2 0  9992,2 51742  53.2170  62.3671 0001523  59.6879 300.4264 15.08895162124370,6917.712,95.434,540.63,538.523,0.0
